WORLDVIEW-1 (WV-1)      
1 32060U 07041A   26195.92689359  .00003247  00000+0  13475-3 0  9995
2 32060  97.3905 315.2811 0001499 207.4916 152.6243 15.24556733 47105
WORLDVIEW-2 (WV-2)      
1 35946U 09055A   26195.92856266  .00000037  00000+0  26697-4 0  9996
2 35946  98.4757 269.0005 0005305 130.4608 229.7042 14.37906848879635
YAOGAN-10               
1 36834U 10038A   26195.97490644  .00001320  00000+0  15944-3 0  9993
2 36834  97.8969 219.1573 0001648  84.7241   1.4023 14.85429965861331
VNREDSAT 1              
1 39160U 13021B   26195.95803343  .00000063  00000+0  20236-4 0  9999
2 39160  97.9071 248.3062 0001594  79.1018 281.0365 14.64882871704357
WORLDVIEW-3 (WV-3)      
1 40115U 14048A   26195.92764886  .00000407  00000+0  53946-4 0  9992
2 40115  97.8557 270.3766 0001280 156.6966 203.4307 14.85063994646021
YAOGAN-21               
1 40143U 14053A   26195.95512789  .00003993  00000+0  15434-3 0  9997
2 40143  97.1463 235.0029 0007878   9.4100 350.7286 15.26758366659199
UMBRA-09                
1 60541U 24149CB  26195.81056535  .00008741  00000+0  42286-3 0  9996
2 60541  97.6976 283.5044 0001976 203.4404 156.6740 15.18841975104911
UMBRA-10                
1 60547U 24149CH  26195.81010953  .00008697  00000+0  42073-3 0  9990
2 60547  97.6982 283.5339 0001690 167.9758 192.1517 15.18843070104926
UMBRA-11                
1 66748U 25276CL  26195.90551680  .00012304  00000+0  45598-3 0  9993
2 66748  97.4192 270.3828 0002654 186.2980 173.8227 15.27772909 34721
UMBRA-12                
1 67371U 26004J   26195.92017155  .00002090  00000+0  22497-3 0  9996
2 67371  97.8021 194.3098 0007413  53.7193 306.4709 14.89531055 27436
