{
 "generated_at": "2026-07-15T07:14:44Z",
 "sources": [
  {
   "name": "CelesTrak",
   "url": "https://celestrak.org/NORAD/elements/",
   "license": "frei verfügbar; Attribution. Ursprünglich USSPACECOM/Space-Track."
  },
  {
   "name": "GCAT (J. McDowell, planet4589.org)",
   "url": "https://planet4589.org/space/gcat/",
   "license": "CC-BY 4.0"
  }
 ],
 "satellites": [
  {
   "norad": 60541,
   "name": "UMBRA-09",
   "intl": "2024-149CB",
   "group": "sar",
   "gcat": {
    "class": "B",
    "category": "IMG-R",
    "owner": "UMBRA",
    "state": "US"
   },
   "omm": {
    "OBJECT_NAME": "UMBRA-09",
    "OBJECT_ID": "2024-149CB",
    "EPOCH": "2026-07-14T19:27:12.846240",
    "MEAN_MOTION": 15.18841975,
    "ECCENTRICITY": 0.00019761,
    "INCLINATION": 97.6976,
    "RA_OF_ASC_NODE": 283.5044,
    "ARG_OF_PERICENTER": 203.4404,
    "MEAN_ANOMALY": 156.674,
    "EPHEMERIS_TYPE": 0,
    "CLASSIFICATION_TYPE": "U",
    "NORAD_CAT_ID": 60541,
    "ELEMENT_SET_NO": 999,
    "REV_AT_EPOCH": 10491,
    "BSTAR": 0.00042286202,
    "MEAN_MOTION_DOT": 0.00008741,
    "MEAN_MOTION_DDOT": 0
   }
  },
  {
   "norad": 60547,
   "name": "UMBRA-10",
   "intl": "2024-149CH",
   "group": "sar",
   "gcat": {
    "class": "B",
    "category": "IMG-R",
    "owner": "UMBRA",
    "state": "US"
   },
   "omm": {
    "OBJECT_NAME": "UMBRA-10",
    "OBJECT_ID": "2024-149CH",
    "EPOCH": "2026-07-14T19:26:33.463392",
    "MEAN_MOTION": 15.1884307,
    "ECCENTRICITY": 0.00016904,
    "INCLINATION": 97.6982,
    "RA_OF_ASC_NODE": 283.5339,
    "ARG_OF_PERICENTER": 167.9758,
    "MEAN_ANOMALY": 192.1517,
    "EPHEMERIS_TYPE": 0,
    "CLASSIFICATION_TYPE": "U",
    "NORAD_CAT_ID": 60547,
    "ELEMENT_SET_NO": 999,
    "REV_AT_EPOCH": 10492,
    "BSTAR": 0.00042072627,
    "MEAN_MOTION_DOT": 0.00008697,
    "MEAN_MOTION_DDOT": 0
   }
  },
  {
   "norad": 66748,
   "name": "UMBRA-11",
   "intl": "2025-276CL",
   "group": "sar",
   "gcat": {
    "class": "B",
    "category": "IMG-R",
    "owner": "UMBRA",
    "state": "US"
   },
   "omm": {
    "OBJECT_NAME": "UMBRA-11",
    "OBJECT_ID": "2025-276CL",
    "EPOCH": "2026-07-14T21:43:56.651520",
    "MEAN_MOTION": 15.27772909,
    "ECCENTRICITY": 0.00026545,
    "INCLINATION": 97.4192,
    "RA_OF_ASC_NODE": 270.3828,
    "ARG_OF_PERICENTER": 186.298,
    "MEAN_ANOMALY": 173.8227,
    "EPHEMERIS_TYPE": 0,
    "CLASSIFICATION_TYPE": "U",
    "NORAD_CAT_ID": 66748,
    "ELEMENT_SET_NO": 999,
    "REV_AT_EPOCH": 3472,
    "BSTAR": 0.00045597762,
    "MEAN_MOTION_DOT": 0.00012304,
    "MEAN_MOTION_DDOT": 0
   }
  },
  {
   "norad": 67371,
   "name": "UMBRA-12",
   "intl": "2026-004J",
   "group": "sar",
   "gcat": {
    "class": "B",
    "category": "IMG-R",
    "owner": "UMBRA",
    "state": "US"
   },
   "omm": {
    "OBJECT_NAME": "UMBRA-12",
    "OBJECT_ID": "2026-004J",
    "EPOCH": "2026-07-14T22:05:02.821920",
    "MEAN_MOTION": 14.89531055,
    "ECCENTRICITY": 0.00074135,
    "INCLINATION": 97.8021,
    "RA_OF_ASC_NODE": 194.3098,
    "ARG_OF_PERICENTER": 53.7193,
    "MEAN_ANOMALY": 306.4709,
    "EPHEMERIS_TYPE": 0,
    "CLASSIFICATION_TYPE": "U",
    "NORAD_CAT_ID": 67371,
    "ELEMENT_SET_NO": 999,
    "REV_AT_EPOCH": 2743,
    "BSTAR": 0.00022497348,
    "MEAN_MOTION_DOT": 0.0000209,
    "MEAN_MOTION_DDOT": 0
   }
  },
  {
   "norad": 39160,
   "name": "VNREDSAT 1",
   "intl": "2013-021B",
   "group": "resource",
   "gcat": {
    "class": "C",
    "category": "IMG",
    "owner": "VAST",
    "state": "VN"
   },
   "omm": {
    "OBJECT_NAME": "VNREDSAT 1",
    "OBJECT_ID": "2013-021B",
    "EPOCH": "2026-07-14T22:59:34.088352",
    "MEAN_MOTION": 14.64882871,
    "ECCENTRICITY": 0.00015945,
    "INCLINATION": 97.9071,
    "RA_OF_ASC_NODE": 248.3062,
    "ARG_OF_PERICENTER": 79.1018,
    "MEAN_ANOMALY": 281.0365,
    "EPHEMERIS_TYPE": 0,
    "CLASSIFICATION_TYPE": "U",
    "NORAD_CAT_ID": 39160,
    "ELEMENT_SET_NO": 999,
    "REV_AT_EPOCH": 70435,
    "BSTAR": 0.000020235569,
    "MEAN_MOTION_DOT": 6.3e-7,
    "MEAN_MOTION_DDOT": 0
   }
  },
  {
   "norad": 32060,
   "name": "WORLDVIEW-1 (WV-1)",
   "intl": "2007-041A",
   "group": "resource",
   "gcat": {
    "class": "B",
    "category": "IMG",
    "owner": "DGLO",
    "state": "US"
   },
   "omm": {
    "OBJECT_NAME": "WORLDVIEW-1 (WV-1)",
    "OBJECT_ID": "2007-041A",
    "EPOCH": "2026-07-14T22:14:43.606176",
    "MEAN_MOTION": 15.24556733,
    "ECCENTRICITY": 0.00014998,
    "INCLINATION": 97.3905,
    "RA_OF_ASC_NODE": 315.2811,
    "ARG_OF_PERICENTER": 207.4916,
    "MEAN_ANOMALY": 152.6243,
    "EPHEMERIS_TYPE": 0,
    "CLASSIFICATION_TYPE": "U",
    "NORAD_CAT_ID": 32060,
    "ELEMENT_SET_NO": 999,
    "REV_AT_EPOCH": 4710,
    "BSTAR": 0.00013474844,
    "MEAN_MOTION_DOT": 0.00003247,
    "MEAN_MOTION_DDOT": 0
   }
  },
  {
   "norad": 35946,
   "name": "WORLDVIEW-2 (WV-2)",
   "intl": "2009-055A",
   "group": "resource",
   "gcat": {
    "class": "B",
    "category": "IMG",
    "owner": "DGLO",
    "state": "US"
   },
   "omm": {
    "OBJECT_NAME": "WORLDVIEW-2 (WV-2)",
    "OBJECT_ID": "2009-055A",
    "EPOCH": "2026-07-14T22:17:07.813824",
    "MEAN_MOTION": 14.37906848,
    "ECCENTRICITY": 0.0005305,
    "INCLINATION": 98.4757,
    "RA_OF_ASC_NODE": 269.0005,
    "ARG_OF_PERICENTER": 130.4608,
    "MEAN_ANOMALY": 229.7042,
    "EPHEMERIS_TYPE": 0,
    "CLASSIFICATION_TYPE": "U",
    "NORAD_CAT_ID": 35946,
    "ELEMENT_SET_NO": 999,
    "REV_AT_EPOCH": 87963,
    "BSTAR": 0.000026696699,
    "MEAN_MOTION_DOT": 3.7e-7,
    "MEAN_MOTION_DDOT": 0
   }
  },
  {
   "norad": 40115,
   "name": "WORLDVIEW-3 (WV-3)",
   "intl": "2014-048A",
   "group": "resource",
   "gcat": {
    "class": "B",
    "category": "IMG",
    "owner": "DGLO",
    "state": "US"
   },
   "omm": {
    "OBJECT_NAME": "WORLDVIEW-3 (WV-3)",
    "OBJECT_ID": "2014-048A",
    "EPOCH": "2026-07-14T22:15:48.861504",
    "MEAN_MOTION": 14.85063994,
    "ECCENTRICITY": 0.00012807,
    "INCLINATION": 97.8557,
    "RA_OF_ASC_NODE": 270.3766,
    "ARG_OF_PERICENTER": 156.6966,
    "MEAN_ANOMALY": 203.4307,
    "EPHEMERIS_TYPE": 0,
    "CLASSIFICATION_TYPE": "U",
    "NORAD_CAT_ID": 40115,
    "ELEMENT_SET_NO": 999,
    "REV_AT_EPOCH": 64602,
    "BSTAR": 0.000053945855,
    "MEAN_MOTION_DOT": 0.00000407,
    "MEAN_MOTION_DDOT": 0
   }
  },
  {
   "norad": 36834,
   "name": "YAOGAN-10",
   "intl": "2010-038A",
   "group": "resource",
   "gcat": {
    "class": null,
    "category": null,
    "owner": null,
    "state": null
   },
   "omm": {
    "OBJECT_NAME": "YAOGAN-10",
    "OBJECT_ID": "2010-038A",
    "EPOCH": "2026-07-14T23:23:51.916416",
    "MEAN_MOTION": 14.85429965,
    "ECCENTRICITY": 0.00016488,
    "INCLINATION": 97.8969,
    "RA_OF_ASC_NODE": 219.1573,
    "ARG_OF_PERICENTER": 84.7241,
    "MEAN_ANOMALY": 1.4023,
    "EPHEMERIS_TYPE": 0,
    "CLASSIFICATION_TYPE": "U",
    "NORAD_CAT_ID": 36834,
    "ELEMENT_SET_NO": 999,
    "REV_AT_EPOCH": 86133,
    "BSTAR": 0.00015944097,
    "MEAN_MOTION_DOT": 0.0000132,
    "MEAN_MOTION_DDOT": 0
   }
  },
  {
   "norad": 40143,
   "name": "YAOGAN-21",
   "intl": "2014-053A",
   "group": "resource",
   "gcat": {
    "class": "D",
    "category": "IMG",
    "owner": "ZZB",
    "state": "CN"
   },
   "omm": {
    "OBJECT_NAME": "YAOGAN-21",
    "OBJECT_ID": "2014-053A",
    "EPOCH": "2026-07-14T22:55:23.049696",
    "MEAN_MOTION": 15.26758366,
    "ECCENTRICITY": 0.00078783,
    "INCLINATION": 97.1463,
    "RA_OF_ASC_NODE": 235.0029,
    "ARG_OF_PERICENTER": 9.41,
    "MEAN_ANOMALY": 350.7286,
    "EPHEMERIS_TYPE": 0,
    "CLASSIFICATION_TYPE": "U",
    "NORAD_CAT_ID": 40143,
    "ELEMENT_SET_NO": 999,
    "REV_AT_EPOCH": 65919,
    "BSTAR": 0.00015433602,
    "MEAN_MOTION_DOT": 0.00003993,
    "MEAN_MOTION_DDOT": 0
   }
  }
 ]
}
